satname,norad_id,inclination_deg,eccentricity,mean_motion_rev_per_day,perigee_km,apogee_km,l1,l2
STARLINK-1320,45572,53.0582,0.0009287,15.43077739,430.70287070211543,443.3613658223758,1 45572U 20025AT  25306.14541129  .00083941  00000+0  18567-2 0  9998,2 45572  53.0582 242.1223 0009287  30.1864 329.9675 15.43077739306963
STARLINK-1321,45573,53.0548,0.0001397,15.06407466,546.2212078211751,548.1561438149984,1 45573U 20025AU  25306.22214347  .00000466  00000+0  50153-4 0  9997,2 45573  53.0548 288.8432 0001397  82.1088 278.0060 15.06407466305991
STARLINK-1328,45576,53.051,0.0011031,15.69557341,352.7306180171845,367.5966568835265,1 45576U 20025AX  25307.91670139  .00236787  00000+0  19107-2 0  9991,2 45576  53.0510 256.0358 0011031  55.5233  47.4983 15.69557341  5894
STARLINK-1331,45578,53.0556,0.0001692,15.06359634,546.1634867679722,548.5070665863996,1 45578U 20025AZ  25307.65966264  .00009535  00000+0  65888-3 0  9998,2 45578  53.0556 282.3898 0001692 106.8077 253.3098 15.06359634306520
STARLINK-1333,45580,53.0551,0.0001322,15.06397172,546.3046931393374,548.1357575897237,1 45580U 20025BB  25307.66610184  .00001903  00000+0  14664-3 0  9996,2 45580  53.0551 292.3593 0001322  86.9246 273.1894 15.06397172306373
STARLINK-1335,45581,53.0562,0.0001628,15.06389975,546.1148315424898,548.3697350371285,1 45581U 20025BC  25306.21108617  .00004333  00000+0  30970-3 0  9998,2 45581  53.0562 288.8936 0001628  92.1252 267.9923 15.06389975306299
STARLINK-1337,45582,53.0564,0.0001488,15.06406313,546.1617205837038,548.2226985564721,1 45582U 20025BD  25306.23318994  .00001093  00000+0  92255-4 0  9997,2 45582  53.0564 288.7948 0001488  92.3730 267.7429 15.06406313306296
STARLINK-1347,45586,53.053,0.0007861,15.3204608,464.32545158001994,475.0916343426634,1 45586U 20025BH  25307.58589289  .00096435  00000+0  30438-2 0  9994,2 45586  53.0530 267.6872 0007861  16.9450 343.1811 15.32046080306707
STARLINK-1360,45588,53.0443,0.0005284,15.75991556,338.26025253860644,345.3618936622597,1 45588U 20025BK  25307.68897008  .00112955  00000+0  70703-3 0  9994,2 45588  53.0443 184.8217 0005284 140.7036 219.4367 15.75991556307883
STARLINK-1364,45589,53.0558,0.0001611,15.06400865,546.0932336135374,548.324580064721,1 45589U 20025BL  25306.23687627  .00001017  00000+0  87133-4 0  9991,2 45589  53.0558 288.7785 0001611 100.5869 259.5301 15.06400865306292
STARLINK-1365,45590,53.0549,0.0001332,15.06397174,546.2977616531971,548.142676816402,1 45590U 20025BM  25307.71216937  .00000981  00000+0  84745-4 0  9994,2 45590  53.0549 312.1525 0001332  91.6448 268.4693 15.06397174306113
STARLINK-1443,45660,53.0552,0.0001568,15.06398216,546.1311301355099,548.3029211579524,1 45660U 20035D   25307.63108000  .00000181  00000+0  31022-4 0  9997,2 45660  53.0552 272.5188 0001568  86.6695 273.4473 15.06398216299737
STARLINK-1446,45663,53.0274,0.0001899,15.33940683,462.76943289618794,465.36810264678843,1 45663U 20035G   25307.51730383  .00045875  00000+0  13804-2 0  9997,2 45663  53.0274 235.3447 0001899  66.6189 293.5011 15.33940683300240
STARLINK-1448,45665,53.055,0.0001448,15.06387957,546.2456724288668,548.25126406047,1 45665U 20035J   25307.63477369  .00000997  00000+0  85814-4 0  9992,2 45665  53.0550 272.4985 0001448  88.0882 272.0273 15.06387957299727
STARLINK-1451,45668,53.0546,0.0001495,15.06401898,546.1704021079904,548.2410795875048,1 45668U 20035M   25306.24521167  .00002458  00000+0  18384-3 0  9998,2 45668  53.0546 279.0564 0001495  81.7531 278.3627 15.06401898299525
STARLINK-1452,45669,53.0409,0.0012054,15.26866809,476.9124287581599,493.4585265873329,1 45669U 20035N   25307.57112507  .00062860  00000+0  23390-2 0  9995,2 45669  53.0409 253.6240 0012054  32.5567 327.6172 15.26866809299992
STARLINK-1453,45670,53.0534,0.0001572,15.06434055,546.0185378482838,548.1958346204365,1 45670U 20035P   25307.84762590  .00010489  00000+0  72133-3 0  9990,2 45670  53.0534 241.5468 0001572  81.2810 278.8357 15.06434055300072
STARLINK-1454,45671,53.0554,0.0001535,15.06410955,546.1149467947253,548.2410184943974,1 45671U 20035Q   25306.20094240 -.00001912  00000+0 -10949-3 0  9990,2 45671  53.0554 278.9394 0001535  92.9775 267.1390 15.06410955299501
STARLINK-1456,45673,53.054,0.0001496,15.06402786,546.1669883958139,548.2390501295777,1 45673U 20035S   25306.21569540  .00007022  00000+0  48978-3 0  9992,2 45673  53.0540 278.8747 0001496  85.2849 274.8311 15.06402786299525
STARLINK-1457,45674,53.0531,0.0001986,15.14276711,521.8046769206403,524.5458781572788,1 45674U 20035T   25307.91670139  .01600768  00000+0  79482-1 0  9997,2 45674  53.0531 271.1159 0001986 140.3540 111.7341 15.14276711  5796
STARLINK-1458,45675,53.0543,0.0001467,15.06407942,546.1712718964482,548.203162021704,1 45675U 20035U   25307.60528362  .00003168  00000+0  23142-3 0  9998,2 45675  53.0543 272.6331 0001467  85.6560 274.4596 15.06407942299691
STARLINK-1460,45676,53.0548,0.0001643,15.06397734,546.0806670014908,548.3563388197481,1 45676U 20035V   25307.64214610  .00000948  00000+0  82547-4 0  9999,2 45676  53.0548 272.4666 0001643  95.1365 264.9812 15.06397734299693
STARLINK-1392,45677,53.0545,0.000173,15.06392175,546.0374510905722,548.4336299895995,1 45677U 20035W   25306.19357357  .00003611  00000+0  26125-3 0  9994,2 45677  53.0545 278.9730 0001730  90.8548 269.2639 15.06392175299516
STARLINK-1394,45679,53.0543,0.0001391,15.0640475,546.2336859512707,548.1603138700448,1 45679U 20035Y   25307.58409233  .00003650  00000+0  26379-3 0  9995,2 45679  53.0543 262.7289 0001391  93.7248 266.3900 15.06404750299868
STARLINK-1402,45685,53.0525,0.0002374,15.27087468,482.8951146204063,486.15350621059315,1 45685U 20035AE  25307.81001515  .00081404  00000+0  30030-2 0  9990,2 45685  53.0525 253.9983 0002374 113.6260 246.4988 15.27087468300017
STARLINK-1404,45686,53.0534,0.0001527,15.06418617,546.0970080901807,548.2119921143112,1 45686U 20035AF  25307.60990068  .00011783  00000+0  80821-3 0  9995,2 45686  53.0534 262.6154 0001527  88.9711 271.1453 15.06418617299873
STARLINK-1413,45689,53.0557,0.0001474,15.06410619,546.1582208436475,548.199804004109,1 45689U 20035AJ  25306.16868409 -.00000843  00000+0 -37710-4 0  9998,2 45689  53.0557 269.0807 0001474  96.6268 263.4889 15.06410619299568
STARLINK-1417,45693,53.0539,0.0001419,15.0639147,546.2549906129834,548.220411953208,1 45693U 20035AN  25306.16500777 -.00000821  00000+0 -36203-4 0  9996,2 45693  53.0539 269.1023 0001419  90.8145 269.3007 15.06391470299642
STARLINK-1420,45695,53.0538,0.0001548,15.06421039,546.0750432087707,548.2191111590664,1 45695U 20035AQ  25307.55919321  .00012182  00000+0  83482-3 0  9992,2 45695  53.0538 242.8305 0001548  88.4925 271.6242 15.06421039300146
STARLINK-1422,45696,53.0544,0.0001461,15.06406232,546.1806671879103,548.2042484554868,1 45696U 20035AR  25307.56934698  .00004980  00000+0  35291-3 0  9990,2 45696  53.0544 262.7973 0001461  90.8104 269.3052 15.06406232299852
STARLINK-1351,45697,53.0544,0.0001294,15.06410597,546.2829439491852,548.0752157506504,1 45697U 20035AS  25307.54539030  .00003385  00000+0  24594-3 0  9992,2 45697  53.0544 242.9033 0001294  93.1161 266.9976 15.06410597300145
STARLINK-1398,45699,53.0502,0.0005255,15.51621082,408.4243339952309,415.5607601492038,1 45699U 20035AU  25306.44679723  .00104497  00000+0  17146-2 0  9996,2 45699  53.0502 206.8762 0005255 109.5361 250.6215 15.51621082300558
STARLINK-1400,45700,53.0541,0.0001397,15.06403247,546.2341365654966,548.1690761721165,1 45700U 20035AV  25306.12630241  .00002778  00000+0  20527-3 0  9993,2 45700  53.0541 249.2746 0001397  95.8375 264.2773 15.06403247299921
STARLINK-1403,45701,53.0541,0.0001476,15.06425451,546.1113854531441,548.1557253210949,1 45701U 20035AW  25307.54907789  .00014120  00000+0  96427-3 0  9991,2 45701  53.0541 242.8868 0001476  87.3275 272.7882 15.06425451300131
STARLINK-1407,45703,53.04,0.0012126,15.41269143,434.0920266325511,450.63310217614344,1 45703U 20035AY  25306.43292831  .00030079  00000+0  71722-3 0  9997,2 45703  53.0400 206.0287 0012126  65.3973 294.8293 15.41269143300560
STARLINK-1411,45706,53.0524,0.00026,15.41451854,440.05040012829795,443.596779635036,1 45706U 20035BB  25307.91670139  .00016692  00000+0  40145-3 0  9995,2 45706  53.0524 226.1541 0002600 123.0964 138.2273 15.41451854  5860
STARLINK-1423,45710,53.0547,0.0001493,15.06423347,546.106059813369,548.173947526664,1 45710U 20035BF  25307.84026208  .00008622  00000+0  59662-3 0  9992,2 45710  53.0547 241.5809 0001493 100.0023 260.1135 15.06423347300180
STARLINK-1433,45711,53.0532,0.0001619,15.06422751,546.0206276349736,548.2630329202175,1 45711U 20035BG  25307.55645299  .00010872  00000+0  74718-3 0  9997,2 45711  53.0532 242.8522 0001619  88.1961 271.9213 15.06422751300138
STARLINK-1434,45712,53.0521,0.0006291,15.15507009,515.1004876967945,523.7790187677128,1 45712U 20035BH  25306.11636319  .00014095  00000+0  74975-3 0  9998,2 45712  53.0521 245.3721 0006291  69.5918 290.5751 15.15507009299986
STARLINK-1465,45731,53.0539,0.0001329,15.06398758,546.2949851627709,548.1357438212535,1 45731U 20038B   25307.72231542  .00002876  00000+0  21187-3 0  9990,2 45731  53.0539  82.1061 0001329  87.6918 272.4223 15.06398758297203
STARLINK-1471,45735,53.0521,9.2e-05,15.4098274,442.5800679321583,443.8351953443798,1 45735U 20038F   25306.49951722  .00020498  00000+0  49822-3 0  9992,2 45735  53.0521  27.3910 0000920 134.5397 225.5682 15.40982740297870
STARLINK-1474,45738,53.0387,0.000386,15.67077827,364.6658362099588,369.8732900767045,1 45738U 20038J   25306.37626049  .00069366  00000+0  63743-3 0  9998,2 45738  53.0387 344.9463 0003860 347.2194  12.8723 15.67077827298456
STARLINK-1475,45739,53.0473,0.0006325,15.78394705,330.74241972449363,339.234523446049,1 45739U 20038K   25307.91670139  .00318408  00000+0  17419-2 0  9991,2 45739  53.0473 303.6248 0006325  30.3204 147.6906 15.78394705  6026
